{"fetched_at":"2026-07-16T06:43:00.092Z","source":"https://celestrak.org/NORAD/elements/gp.php?NAME=HULIANWANG&FORMAT=JSON","constellation":"guowang","records":[{"OBJECT_NAME":"HULIANWANG DIGUI-76","OBJECT_ID":"2025-187D","EPOCH":"2026-07-15T22:57:06.994944","CLASSIFICATION_TYPE":"U","MEAN_MOTION":13.29323734,"ECCENTRICITY":0.00000803,"INCLINATION":50.001,"RA_OF_ASC_NODE":102.8147,"ARG_OF_PERICENTER":357.7497,"MEAN_ANOMALY":2.3374,"EPHEMERIS_TYPE":0,"NORAD_CAT_ID":65308,"ELEMENT_SET_NO":999,"REV_AT_EPOCH":4352,"BSTAR":0.000054469771,"MEAN_MOTION_DOT":-9.9e-7,"MEAN_MOTION_DDOT":0},{"OBJECT_NAME":"HULIANWANG DIGUI-77","OBJECT_ID":"2025-187E","EPOCH":"2026-07-15T22:44:56.314464","CLASSIFICATION_TYPE":"U","MEAN_MOTION":13.29323668,"ECCENTRICITY":0.0000116,"INCLINATION":50.0044,"RA_OF_ASC_NODE":102.8588,"ARG_OF_PERICENTER":204.8892,"MEAN_ANOMALY":155.1975,"EPHEMERIS_TYPE":0,"NORAD_CAT_ID":65309,"ELEMENT_SET_NO":999,"REV_AT_EPOCH":4352,"BSTAR":0.000057352872,"MEAN_MOTION_DOT":-9.7e-7,"MEAN_MOTION_DDOT":0},{"OBJECT_NAME":"HULIANWANG DIGUI-78","OBJECT_ID":"2025-187F","EPOCH":"2026-07-15T21:44:57.461568","CLASSIFICATION_TYPE":"U","MEAN_MOTION":13.29322758,"ECCENTRICITY":0.00000987,"INCLINATION":50.011,"RA_OF_ASC_NODE":102.812,"ARG_OF_PERICENTER":315.5222,"MEAN_ANOMALY":44.5642,"EPHEMERIS_TYPE":0,"NORAD_CAT_ID":65310,"ELEMENT_SET_NO":999,"REV_AT_EPOCH":4352,"BSTAR":0.000032931514,"MEAN_MOTION_DOT":-0.00000109,"MEAN_MOTION_DDOT":0},{"OBJECT_NAME":"HULIANWANG DIGUI-79","OBJECT_ID":"2025-187G","EPOCH":"2026-07-15T21:20:47.223744","CLASSIFICATION_TYPE":"U","MEAN_MOTION":13.29319509,"ECCENTRICITY":0.00001658,"INCLINATION":50.0039,"RA_OF_ASC_NODE":103.2025,"ARG_OF_PERICENTER":313.5816,"MEAN_ANOMALY":46.5042,"EPHEMERIS_TYPE":0,"NORAD_CAT_ID":65311,"ELEMENT_SET_NO":999,"REV_AT_EPOCH":4351,"BSTAR":0.000044458878,"MEAN_MOTION_DOT":-0.00000103,"MEAN_MOTION_DDOT":0},{"OBJECT_NAME":"HULIANWANG DIGUI-80","OBJECT_ID":"2025-187H","EPOCH":"2026-07-15T22:32:56.149728","CLASSIFICATION_TYPE":"U","MEAN_MOTION":13.29322818,"ECCENTRICITY":0.00001177,"INCLINATION":50.003,"RA_OF_ASC_NODE":102.7793,"ARG_OF_PERICENTER":207.864,"MEAN_ANOMALY":152.2226,"EPHEMERIS_TYPE":0,"NORAD_CAT_ID":65312,"ELEMENT_SET_NO":999,"REV_AT_EPOCH":4352,"BSTAR":0.000057131893,"MEAN_MOTION_DOT":-9.8e-7,"MEAN_MOTION_DDOT":0},{"OBJECT_NAME":"HULIANWANG DIGUI-81","OBJECT_ID":"2025-187J","EPOCH":"2026-07-15T22:08:59.429184","CLASSIFICATION_TYPE":"U","MEAN_MOTION":13.29319673,"ECCENTRICITY":0.00001184,"INCLINATION":50.0069,"RA_OF_ASC_NODE":102.7959,"ARG_OF_PERICENTER":308.9515,"MEAN_ANOMALY":51.1347,"EPHEMERIS_TYPE":0,"NORAD_CAT_ID":65313,"ELEMENT_SET_NO":999,"REV_AT_EPOCH":4353,"BSTAR":0.000044443959,"MEAN_MOTION_DOT":-0.00000103,"MEAN_MOTION_DDOT":0},{"OBJECT_NAME":"HULIANWANG DIGUI-82","OBJECT_ID":"2025-220A","EPOCH":"2026-07-15T19:07:49.868544","CLASSIFICATION_TYPE":"U","MEAN_MOTION":13.24409582,"ECCENTRICITY":0.00021556,"INCLINATION":86.4951,"RA_OF_ASC_NODE":34.1954,"ARG_OF_PERICENTER":100.6176,"MEAN_ANOMALY":259.5201,"EPHEMERIS_TYPE":0,"NORAD_CAT_ID":65817,"ELEMENT_SET_NO":999,"REV_AT_EPOCH":3870,"BSTAR":0.000054161158,"MEAN_MOTION_DOT":3.8e-7,"MEAN_MOTION_DDOT":0},{"OBJECT_NAME":"HULIANWANG DIGUI-83","OBJECT_ID":"2025-220B","EPOCH":"2026-07-15T22:34:37.557408","CLASSIFICATION_TYPE":"U","MEAN_MOTION":13.24409866,"ECCENTRICITY":0.00021863,"INCLINATION":86.4973,"RA_OF_ASC_NODE":34.2061,"ARG_OF_PERICENTER":100.0082,"MEAN_ANOMALY":260.1298,"EPHEMERIS_TYPE":0,"NORAD_CAT_ID":65818,"ELEMENT_SET_NO":999,"REV_AT_EPOCH":3872,"BSTAR":0.000016712207,"MEAN_MOTION_DOT":2.2e-7,"MEAN_MOTION_DDOT":0},{"OBJECT_NAME":"HULIANWANG DIGUI-84","OBJECT_ID":"2025-220C","EPOCH":"2026-07-15T22:23:41.599968","CLASSIFICATION_TYPE":"U","MEAN_MOTION":13.24409716,"ECCENTRICITY":0.00021306,"INCLINATION":86.4911,"RA_OF_ASC_NODE":34.0195,"ARG_OF_PERICENTER":100.4113,"MEAN_ANOMALY":259.7262,"EPHEMERIS_TYPE":0,"NORAD_CAT_ID":65819,"ELEMENT_SET_NO":999,"REV_AT_EPOCH":3872,"BSTAR":6.07782e-7,"MEAN_MOTION_DOT":1.5e-7,"MEAN_MOTION_DDOT":0},{"OBJECT_NAME":"HULIANWANG DIGUI-85","OBJECT_ID":"2025-220D","EPOCH":"2026-07-15T22:12:48.646656","CLASSIFICATION_TYPE":"U","MEAN_MOTION":13.24408653,"ECCENTRICITY":0.00021001,"INCLINATION":86.4972,"RA_OF_ASC_NODE":34.194,"ARG_OF_PERICENTER":102.0483,"MEAN_ANOMALY":258.0887,"EPHEMERIS_TYPE":0,"NORAD_CAT_ID":65820,"ELEMENT_SET_NO":999,"REV_AT_EPOCH":3872,"BSTAR":-0.000032908456,"MEAN_MOTION_DOT":1e-8,"MEAN_MOTION_DDOT":0},{"OBJECT_NAME":"HULIANWANG DIGUI-86","OBJECT_ID":"2025-220E","EPOCH":"2026-07-15T22:02:08.155680","CLASSIFICATION_TYPE":"U","MEAN_MOTION":13.24411503,"ECCENTRICITY":0.00020623,"INCLINATION":86.4951,"RA_OF_ASC_NODE":34.1281,"ARG_OF_PERICENTER":85.3927,"MEAN_ANOMALY":274.7443,"EPHEMERIS_TYPE":0,"NORAD_CAT_ID":65821,"ELEMENT_SET_NO":999,"REV_AT_EPOCH":3872,"BSTAR":-0.000014448272,"MEAN_MOTION_DOT":8e-8,"MEAN_MOTION_DDOT":0},{"OBJECT_NAME":"HULIANWANG DIGUI-87","OBJECT_ID":"2025-231A","EPOCH":"2026-07-15T21:12:28.090944","CLASSIFICATION_TYPE":"U","MEAN_MOTION":13.2932814,"ECCENTRICITY":0.00005107,"INCLINATION":50.0007,"RA_OF_ASC_NODE":72.9112,"ARG_OF_PERICENTER":353.1918,"MEAN_ANOMALY":6.8947,"EPHEMERIS_TYPE":0,"NORAD_CAT_ID":65995,"ELEMENT_SET_NO":999,"REV_AT_EPOCH":3670,"BSTAR":0.000057502255,"MEAN_MOTION_DOT":-9.7e-7,"MEAN_MOTION_DDOT":0},{"OBJECT_NAME":"HULIANWANG DIGUI-88","OBJECT_ID":"2025-231B","EPOCH":"2026-07-15T21:24:31.940640","CLASSIFICATION_TYPE":"U","MEAN_MOTION":13.29323742,"ECCENTRICITY":0.00005027,"INCLINATION":49.9995,"RA_OF_ASC_NODE":72.9278,"ARG_OF_PERICENTER":337.0768,"MEAN_ANOMALY":23.0081,"EPHEMERIS_TYPE":0,"NORAD_CAT_ID":65996,"ELEMENT_SET_NO":999,"REV_AT_EPOCH":3670,"BSTAR":0.000045595989,"MEAN_MOTION_DOT":-0.00000103,"MEAN_MOTION_DDOT":0},{"OBJECT_NAME":"HULIANWANG DIGUI-89","OBJECT_ID":"2025-231C","EPOCH":"2026-07-15T21:00:24.723360","CLASSIFICATION_TYPE":"U","MEAN_MOTION":13.29327937,"ECCENTRICITY":0.00005688,"INCLINATION":49.9968,"RA_OF_ASC_NODE":72.7932,"ARG_OF_PERICENTER":343.2604,"MEAN_ANOMALY":16.8249,"EPHEMERIS_TYPE":0,"NORAD_CAT_ID":65997,"ELEMENT_SET_NO":999,"REV_AT_EPOCH":3670,"BSTAR":0.000057590637,"MEAN_MOTION_DOT":-9.7e-7,"MEAN_MOTION_DDOT":0},{"OBJECT_NAME":"HULIANWANG DIGUI-90","OBJECT_ID":"2025-231D","EPOCH":"2026-07-15T20:48:29.026368","CLASSIFICATION_TYPE":"U","MEAN_MOTION":13.29326325,"ECCENTRICITY":0.00005409,"INCLINATION":50,"RA_OF_ASC_NODE":72.8125,"ARG_OF_PERICENTER":339.5533,"MEAN_ANOMALY":20.5317,"EPHEMERIS_TYPE":0,"NORAD_CAT_ID":65998,"ELEMENT_SET_NO":999,"REV_AT_EPOCH":3670,"BSTAR":0.000057458208,"MEAN_MOTION_DOT":-9.7e-7,"MEAN_MOTION_DDOT":0},{"OBJECT_NAME":"HULIANWANG DIGUI-91","OBJECT_ID":"2025-231E","EPOCH":"2026-07-15T22:24:42.422976","CLASSIFICATION_TYPE":"U","MEAN_MOTION":13.29327059,"ECCENTRICITY":0.0000519,"INCLINATION":50.0018,"RA_OF_ASC_NODE":72.542,"ARG_OF_PERICENTER":340.0577,"MEAN_ANOMALY":20.0275,"EPHEMERIS_TYPE":0,"NORAD_CAT_ID":65999,"ELEMENT_SET_NO":999,"REV_AT_EPOCH":3671,"BSTAR":0.000071076128,"MEAN_MOTION_DOT":-9.1e-7,"MEAN_MOTION_DDOT":0}]}
