HULIANWANG DIGUI-76     
1 65308U 25187D   26196.95633096 -.00000099  00000+0  54470-4 0  9992
2 65308  50.0010 102.8147 0000080 357.7497   2.3374 13.29323734 43523
HULIANWANG DIGUI-77     
1 65309U 25187E   26196.94787401 -.00000097  00000+0  57353-4 0  9993
2 65309  50.0044 102.8588 0000116 204.8892 155.1975 13.29323668 43521
HULIANWANG DIGUI-78     
1 65310U 25187F   26196.90622062 -.00000109  00000+0  32932-4 0  9992
2 65310  50.0110 102.8120 0000098 315.5222  44.5642 13.29322758 43526
HULIANWANG DIGUI-79     
1 65311U 25187G   26196.88943546 -.00000103  00000+0  44459-4 0  9994
2 65311  50.0039 103.2025 0000165 313.5816  46.5042 13.29319509 43513
HULIANWANG DIGUI-80     
1 65312U 25187H   26196.93953877 -.00000098  00000+0  57132-4 0  9994
2 65312  50.0030 102.7793 0000117 207.8640 152.2226 13.29322818 43525
HULIANWANG DIGUI-81     
1 65313U 25187J   26196.92291006 -.00000103  00000+0  44444-4 0  9992
2 65313  50.0069 102.7959 0000118 308.9515  51.1347 13.29319673 43534
HULIANWANG DIGUI-82     
1 65817U 25220A   26196.79710496  .00000038  00000+0  54161-4 0  9996
2 65817  86.4951  34.1954 0002155 100.6176 259.5201 13.24409582 38702
HULIANWANG DIGUI-83     
1 65818U 25220B   26196.94071247  .00000022  00000+0  16712-4 0  9991
2 65818  86.4973  34.2061 0002186 100.0082 260.1298 13.24409866 38722
HULIANWANG DIGUI-84     
1 65819U 25220C   26196.93312037  .00000015  00000+0  60778-6 0  9991
2 65819  86.4911  34.0195 0002130 100.4113 259.7262 13.24409716 38728
HULIANWANG DIGUI-85     
1 65820U 25220D   26196.92556304  .00000001  00000+0 -32908-4 0  9997
2 65820  86.4972  34.1940 0002100 102.0483 258.0887 13.24408653 38725
HULIANWANG DIGUI-86     
1 65821U 25220E   26196.91814995  .00000008  00000+0 -14448-4 0  9996
2 65821  86.4951  34.1281 0002062  85.3927 274.7443 13.24411503 38725
HULIANWANG DIGUI-87     
1 65995U 25231A   26196.88365846 -.00000097  00000+0  57502-4 0  9998
2 65995  50.0007  72.9112 0000510 353.1918   6.8947 13.29328140 36709
HULIANWANG DIGUI-88     
1 65996U 25231B   26196.89203635 -.00000103  00000+0  45596-4 0  9995
2 65996  49.9995  72.9278 0000502 337.0768  23.0081 13.29323742 36704
HULIANWANG DIGUI-89     
1 65997U 25231C   26196.87528615 -.00000097  00000+0  57591-4 0  9992
2 65997  49.9968  72.7932 0000568 343.2604  16.8249 13.29327937 36706
HULIANWANG DIGUI-90     
1 65998U 25231D   26196.86700262 -.00000097  00000+0  57458-4 0  9994
2 65998  50.0000  72.8125 0000540 339.5533  20.5317 13.29326325 36709
HULIANWANG DIGUI-91     
1 65999U 25231E   26196.93382434 -.00000091  00000+0  71076-4 0  9996
2 65999  50.0018  72.5420 0000519 340.0577  20.0275 13.29327059 36719
